[
  {
    "name": "OSCAR 7 (AO-7)",
    "line1": "1 07530U 74089B   26171.32384949 -.00000048  00000+0 -10319-4 0  9993",
    "line2": "2 07530 101.9899 184.6033 0012609 124.3014 247.3322 12.53698149360912"
  },
  {
    "name": "PHASE 3B (AO-10)",
    "line1": "1 14129U 83058B   26170.31181399  .00000155  00000+0  00000+0 0  9991",
    "line2": "2 14129  25.9140 219.2125 6010101 116.2527 316.1180  2.05869727295535"
  },
  {
    "name": "UOSAT 2 (UO-11)",
    "line1": "1 14781U 84021B   26171.44314262  .00001042  00000+0  11163-3 0  9990",
    "line2": "2 14781  97.8059 136.9814 0007936 162.0618 198.0882 14.90789882257615"
  },
  {
    "name": "LUSAT (LO-19)",
    "line1": "1 20442U 90005G   26171.32155512  .00000068  00000+0  41169-4 0  9995",
    "line2": "2 20442  98.8848 193.2136 0011289 191.6338 168.4586 14.34123955902844"
  },
  {
    "name": "ATS 5",
    "line1": "1 04068U 69069A   26171.48819652 -.00000328  00000+0  00000+0 0  9990",
    "line2": "2 04068   0.2590 150.3675 0005224 127.9437 298.4948  0.99494904 46360"
  },
  {
    "name": "OPS 6582 (TRANSIT 5B-5)",
    "line1": "1 00965U 64083D   26171.03607451  .00000028  00000+0  27263-4 0  9997",
    "line2": "2 00965  90.0760 203.0630 0039460 269.4934 117.9859 13.57013196 44001"
  },
  {
    "name": "LES-1",
    "line1": "1 01002U 65008C   26171.26841131  .00000005  00000+0 -41666-3 0  9996",
    "line2": "2 01002  32.1468  37.4064 0015589 281.2916  78.5830  9.88354866216490"
  },
  {
    "name": "SOLRAD 7B",
    "line1": "1 01291U 65016D   26171.40983683 -.00000020  00000+0  23614-4 0  9991",
    "line2": "2 01291  70.0784 229.4124 0018735 120.5790 239.7167 13.94976021117155"
  },
  {
    "name": "SECOR 4 (EGRS 4)",
    "line1": "1 01315U 65027B   26171.06185034  .00000052  00000+0  16402-3 0  9996",
    "line2": "2 01315  90.2491  15.6426 0030751 189.7647 324.1902 12.92667772887293"
  },
  {
    "name": "TIROS 10",
    "line1": "1 01430U 65051A   26171.30524198  .00000107  00000+0  45805-4 0  9997",
    "line2": "2 01430  98.5043 290.6221 0056364  70.1915 290.5339 14.41632017196363"
  },
  {
    "name": "ALOUETTE 2",
    "line1": "1 01804U 65098A   26171.25927294  .00000463  00000+0  15264-3 0  9991",
    "line2": "2 01804  79.8010 274.0391 1329837 226.2939 122.0232 12.28346686679653"
  },
  {
    "name": "OV3-3",
    "line1": "1 02389U 66070A   26171.41097096  .00016992  00000+0  75540-3 0  9994",
    "line2": "2 02389  81.3258 328.1668 1011807 149.3099 217.1459 13.45487346599409"
  },
  {
    "name": "SECOR 7 (EGRS 7)",
    "line1": "1 02411U 66077B   26170.31095607  .00000027  00000+0  12769-1 0  9995",
    "line2": "2 02411  90.3370 277.4640 0011442  57.0255 303.1695  8.59615321877568"
  },
  {
    "name": "ERS 15",
    "line1": "1 02412U 66077C   26171.24338301  .00000002  00000+0  00000+0 0  9996",
    "line2": "2 02412  90.3374 277.2684 0007156  66.7785 293.3819  8.59079320390720"
  },
  {
    "name": "ISIS 1",
    "line1": "1 03669U 69009A   26171.37783306  .00000047  00000+0  33808-4 0  9998",
    "line2": "2 03669  88.4426 144.0490 1706318 241.7756 100.0821 11.30434104360134"
  },
  {
    "name": "SECOR 13 (EGRS 13)",
    "line1": "1 03891U 69037B   26171.39589103 -.00000039  00000+0  63397-5 0  9996",
    "line2": "2 03891  99.6483  42.7435 0038733 243.0298 291.4663 13.42977152802180"
  },
  {
    "name": "OPS 7613 (P/L 4)",
    "line1": "1 04237U 69082E   26171.19651300  .00000038  00000+0  65877-4 0  9990",
    "line2": "2 04237  70.0149  97.4624 0018456 131.1660  27.2412 13.95996985886726"
  },
  {
    "name": "OPS 7613 (P/L 1)",
    "line1": "1 04256U 69082B   26171.45341182  .00000060  00000+0  78289-4 0  9990",
    "line2": "2 04256  70.0104 317.9972 0017411  57.0196 303.2582 13.99198128890923"
  },
  {
    "name": "SHINSEI (MS-F2)",
    "line1": "1 05485U 71080A   26170.99106450  .00000055  00000+0  86330-4 0  9991",
    "line2": "2 05485  32.0531  90.9946 0639527  57.6325 308.4544 12.74252560549612"
  },
  {
    "name": "PROSPERO (BLACK ARROW)",
    "line1": "1 05580U 71093A   26171.36856719  .00001162  00000+0  24704-3 0  9999",
    "line2": "2 05580  82.0387 288.0358 0500596 217.8925 138.6020 14.01614147748975"
  },
  {
    "name": "OPS 7898 (P/L 2)",
    "line1": "1 05680U 71110C   26171.44444318 -.00000019  00000+0  32767-4 0  9997",
    "line2": "2 05680  69.9903 356.1977 0007641 184.0172 176.0862 13.74759082348669"
  },
  {
    "name": "NOAA 2 (ITOS-D)",
    "line1": "1 06235U 72082A   26171.30478637 -.00000036  00000+0  67319-4 0  9999",
    "line2": "2 06235 102.0071 189.9106 0004321 159.0055 211.5785 12.53215154455347"
  },
  {
    "name": "TIROS N",
    "line1": "1 11060U 78096A   26171.02835610  .00000075  00000+0  55229-4 0  9998",
    "line2": "2 11060  98.4528 191.9529 0009378 229.7672 130.2685 14.19375838679156"
  },
  {
    "name": "HILAT",
    "line1": "1 14154U 83063A   26171.45678435  .00000278  00000+0  84843-4 0  9991",
    "line2": "2 14154  82.0234 157.9867 0037800 281.2939 235.5631 14.38713308248053"
  },
  {
    "name": "NOAA 9",
    "line1": "1 15427U 84123A   26171.37097205  .00000047  00000+0  46299-4 0  9991",
    "line2": "2 15427  99.0986 198.0827 0014295 345.1220  26.4273 14.17068895143871"
  },
  {
    "name": "GEOSAT",
    "line1": "1 15595U 85021A   26171.34477867  .00000058  00000+0  61571-4 0  9990",
    "line2": "2 15595 108.0421  88.0185 0001392 291.1386  68.9607 14.39967580163220"
  },
  {
    "name": "EUTELSAT 1-F4 (ECS 4)",
    "line1": "1 18351U 87078B   26171.37872375 -.00000137  00000+0  00000+0 0  9997",
    "line2": "2 18351  13.8264 342.1038 0010742  45.0555 310.8480  0.98688653126784"
  },
  {
    "name": "PACSAT (AO-16)",
    "line1": "1 20439U 90005D   26171.37368470  .00000076  00000+0  43770-4 0  9994",
    "line2": "2 20439  98.8520 207.1280 0009895 217.4737 153.7099 14.33937547902397"
  },
  {
    "name": "IRS-1B",
    "line1": "1 21688U 91061A   26171.43243586 -.00000089  00000+0 -29789-4 0  9991",
    "line2": "2 21688  99.4114 179.4599 0024397 356.6466 169.8909 13.97877693668945"
  },
  {
    "name": "COSMOS 2197",
    "line1": "1 22034U 92042A   26171.38316794  .00000011  00000+0  48028-6 0  9995",
    "line2": "2 22034  82.5935 226.8917 0011426 265.8364 104.8699 12.64251990565695"
  },
  {
    "name": "PEGASUS R/B",
    "line1": "1 22491U 93009C   26171.40811109  .00000700  00000+0  10446-3 0  9994",
    "line2": "2 22491  24.9779  69.7453 0044132 141.5685 218.7981 14.57973987770107"
  }
]